{
  "type": "FeatureCollection",
  "features": [
    {
      "type": "Feature",
      "properties": {
        "norad_id": 19071,
        "name": "OSCAR 32",
        "group": "nnss",
        "lat": -87.30930739872683,
        "lon": -170.17931312233864,
        "alt_km": 1218.4815573152882,
        "timestamp": "2025-12-17T17:50:19.519374+00:00",
        "meta_object_name": "OSCAR 32",
        "meta_object_id": "1988-033B",
        "meta_epoch": "2025-12-17T07:31:51.810240",
        "meta_mean_motion": 13.27954621,
        "meta_eccentricity": 0.01887073,
        "meta_inclination": 90.3214,
        "meta_ra_of_asc_node": 16.6666,
        "meta_arg_of_pericenter": 154.1097,
        "meta_mean_anomaly": 219.2046,
        "meta_ephemeris_type": 0,
        "meta_classification_type": "U",
        "meta_norad_cat_id": 19071,
        "meta_element_set_no": 999,
        "meta_rev_at_epoch": 82326,
        "meta_bstar": 0.00017027591,
        "meta_mean_motion_dot": 9.4e-07,
        "meta_mean_motion_ddot": 0,
        "tle_line1": "1 19071U 88033B   25351.31379410  .00000094  00000+0  17028-3 0  9997",
        "tle_line2": "2 19071  90.3214  16.6666 0188707 154.1097 219.2046 13.27954621823263"
      },
      "geometry": {
        "type": "Point",
        "coordinates": [
          -170.17931312233864,
          -87.30930739872683
        ]
      }
    },
    {
      "type": "Feature",
      "properties": {
        "norad_id": 19223,
        "name": "NOVA 2",
        "group": "nnss",
        "lat": 12.255811165321061,
        "lon": 78.26913653845112,
        "alt_km": 1152.1998034087383,
        "timestamp": "2025-12-17T17:50:19.519388+00:00",
        "meta_object_name": "NOVA 2",
        "meta_object_id": "1988-052A",
        "meta_epoch": "2025-12-17T07:11:58.429248",
        "meta_mean_motion": 13.22936334,
        "meta_eccentricity": 0.00301991,
        "meta_inclination": 89.9872,
        "meta_ra_of_asc_node": 78.2669,
        "meta_arg_of_pericenter": 4.4143,
        "meta_mean_anomaly": 57.8715,
        "meta_ephemeris_type": 0,
        "meta_classification_type": "U",
        "meta_norad_cat_id": 19223,
        "meta_element_set_no": 999,
        "meta_rev_at_epoch": 81008,
        "meta_bstar": 0.00012801318,
        "meta_mean_motion_dot": 6.3e-07,
        "meta_mean_motion_ddot": 0,
        "tle_line1": "1 19223U 88052A   25351.29998182  .00000063  00000+0  12801-3 0  9997",
        "tle_line2": "2 19223  89.9872  78.2669 0030199   4.4143  57.8715 13.22936334810084"
      },
      "geometry": {
        "type": "Point",
        "coordinates": [
          78.26913653845112,
          12.255811165321061
        ]
      }
    },
    {
      "type": "Feature",
      "properties": {
        "norad_id": 19419,
        "name": "OSCAR 25",
        "group": "nnss",
        "lat": 82.07334410160591,
        "lon": 20.014232075473547,
        "alt_km": 1152.8543492643767,
        "timestamp": "2025-12-17T17:50:19.519399+00:00",
        "meta_object_name": "OSCAR 25",
        "meta_object_id": "1988-074A",
        "meta_epoch": "2025-12-17T08:32:08.109024",
        "meta_mean_motion": 13.42624184,
        "meta_eccentricity": 0.00946725,
        "meta_inclination": 90.0343,
        "meta_ra_of_asc_node": 20.2594,
        "meta_arg_of_pericenter": 232.4617,
        "meta_mean_anomaly": 137.691,
        "meta_ephemeris_type": 0,
        "meta_classification_type": "U",
        "meta_norad_cat_id": 19419,
        "meta_element_set_no": 999,
        "meta_rev_at_epoch": 82702,
        "meta_bstar": 0.00016982125,
        "meta_mean_motion_dot": 1.07e-06,
        "meta_mean_motion_ddot": 0,
        "tle_line1": "1 19419U 88074A   25351.35564941  .00000107  00000+0  16982-3 0  9990",
        "tle_line2": "2 19419  90.0343  20.2594 0094672 232.4617 137.6910 13.42624184827021"
      },
      "geometry": {
        "type": "Point",
        "coordinates": [
          20.014232075473547,
          82.07334410160591
        ]
      }
    },
    {
      "type": "Feature",
      "properties": {
        "norad_id": 19420,
        "name": "OSCAR 31",
        "group": "nnss",
        "lat": -33.33601564894324,
        "lon": 20.635232132443523,
        "alt_km": 1118.7941413795443,
        "timestamp": "2025-12-17T17:50:19.519410+00:00",
        "meta_object_name": "OSCAR 31",
        "meta_object_id": "1988-074B",
        "meta_epoch": "2025-12-17T02:10:38.456832",
        "meta_mean_motion": 13.4258528,
        "meta_eccentricity": 0.00930033,
        "meta_inclination": 90.036,
        "meta_ra_of_asc_node": 20.6092,
        "meta_arg_of_pericenter": 227.363,
        "meta_mean_anomaly": 186.2016,
        "meta_ephemeris_type": 0,
        "meta_classification_type": "U",
        "meta_norad_cat_id": 19420,
        "meta_element_set_no": 999,
        "meta_rev_at_epoch": 82709,
        "meta_bstar": 0.00015342752,
        "meta_mean_motion_dot": 9.8e-07,
        "meta_mean_motion_ddot": 0,
        "tle_line1": "1 19420U 88074B   25351.09072288  .00000098  00000+0  15343-3 0  9990",
        "tle_line2": "2 19420  90.0360  20.6092 0093003 227.3630 186.2016 13.42585280827091"
      },
      "geometry": {
        "type": "Point",
        "coordinates": [
          20.635232132443523,
          -33.33601564894324
        ]
      }
    }
  ]
}